STARLINK-35736          
1 66230U 25244AA  25330.41668980 -.02024475  00000+0 -49409-1 0  9991
2 66230  53.1603 352.4868 0001232  67.6827  62.2821 15.43820205  5586
STARLINK-35735          
1 66231U 25244AB  25329.55248438 -.00112473  00000+0 -20987-2 0  9992
2 66231  53.1607 356.5915 0001249 118.7680 241.3454 15.48549911  5671
STARLINK-35626          
1 66233U 25244AD  25330.06778782  .00021977  00000+0  40942-3 0  9992
2 66233  53.1604 354.1201 0001776 171.7522 188.3517 15.48790615  5759
STARLINK-35537          
1 66234U 25245A   25330.41668980  .00008959  00000+0  23376-3 0  9998
2 66234  53.1600  46.6034 0001438 112.0857 208.6751 15.39611391  5486
STARLINK-35541          
1 66235U 25245B   25330.41668980  .00009544  00000+0  24835-3 0  9991
2 66235  53.1600  46.5990 0001361 113.1967 209.3941 15.39611544  5429
STARLINK-35454          
1 66236U 25245C   25330.41668980  .00007430  00000+0  19561-3 0  9994
2 66236  53.1603  46.5502 0001224  79.5872 266.9234 15.39609650  5317
STARLINK-35557          
1 66237U 25245D   25330.41668980  .00014400  00000+0  37003-3 0  9991
2 66237  53.1605  46.5457 0002724  23.2667 325.1692 15.39559144  5489
STARLINK-35556          
1 66238U 25245E   25330.41668980  .00005007  00000+0  13517-3 0  9999
2 66238  53.1609  46.4980 0001503  86.5070 285.7773 15.39599449  5481
STARLINK-35554          
1 66239U 25245F   25330.41668980  .00008329  00000+0  21806-3 0  9990
2 66239  53.1609  46.4945 0001572  77.1622 296.9314 15.39608222  5315
STARLINK-35546          
1 66240U 25245G   25330.41668980  .00001472  00000+0  46760-4 0  9991
2 66240  53.1610  46.4472 0001762  64.8094 333.1786 15.39628797  5485
STARLINK-35497          
1 66241U 25245H   25330.41668980  .00002739  00000+0  78426-4 0  9993
2 66241  53.1610  46.4435 0001620  65.7297 334.1031 15.39622949  5424
