CCSDS_OMM_VERS = 2.0
CREATION_DATE  = 
ORIGINATOR     = 

OBJECT_NAME    = STARLINK-35736
OBJECT_ID      = 2025-244AA
CENTER_NAME    = EARTH
REF_FRAME      = TEME
TIME_SYSTEM    = UTC
MEAN_ELEMENT_THEORY = SGP/SGP4

EPOCH          = 2025-11-26T10:00:01.998720
MEAN_MOTION    = 15.43820205
ECCENTRICITY   = .0001232
INCLINATION    = 53.1603
RA_OF_ASC_NODE = 352.4868
ARG_OF_PERICENTER = 67.6827
MEAN_ANOMALY   = 62.2821

EPHEMERIS_TYPE = 0
CLASSIFICATION_TYPE = U
NORAD_CAT_ID   = 66230
ELEMENT_SET_NO = 999
REV_AT_EPOCH   = 558
BSTAR          = -.49409E-1
MEAN_MOTION_DOT = -.2024475E-1
MEAN_MOTION_DDOT = 0

CCSDS_OMM_VERS = 2.0
CREATION_DATE  = 
ORIGINATOR     = 

OBJECT_NAME    = STARLINK-35735
OBJECT_ID      = 2025-244AB
CENTER_NAME    = EARTH
REF_FRAME      = TEME
TIME_SYSTEM    = UTC
MEAN_ELEMENT_THEORY = SGP/SGP4

EPOCH          = 2025-11-25T13:15:34.650432
MEAN_MOTION    = 15.48549911
ECCENTRICITY   = .0001249
INCLINATION    = 53.1607
RA_OF_ASC_NODE = 356.5915
ARG_OF_PERICENTER = 118.7680
MEAN_ANOMALY   = 241.3454

EPHEMERIS_TYPE = 0
CLASSIFICATION_TYPE = U
NORAD_CAT_ID   = 66231
ELEMENT_SET_NO = 999
REV_AT_EPOCH   = 567
BSTAR          = -.20986871E-2
MEAN_MOTION_DOT = -.112473E-2
MEAN_MOTION_DDOT = 0

CCSDS_OMM_VERS = 2.0
CREATION_DATE  = 
ORIGINATOR     = 

OBJECT_NAME    = STARLINK-35626
OBJECT_ID      = 2025-244AD
CENTER_NAME    = EARTH
REF_FRAME      = TEME
TIME_SYSTEM    = UTC
MEAN_ELEMENT_THEORY = SGP/SGP4

EPOCH          = 2025-11-26T01:37:36.868512
MEAN_MOTION    = 15.48790615
ECCENTRICITY   = .00017757
INCLINATION    = 53.1604
RA_OF_ASC_NODE = 354.1201
ARG_OF_PERICENTER = 171.7522
MEAN_ANOMALY   = 188.3517

EPHEMERIS_TYPE = 0
CLASSIFICATION_TYPE = U
NORAD_CAT_ID   = 66233
ELEMENT_SET_NO = 999
REV_AT_EPOCH   = 575
BSTAR          = .40942478E-3
MEAN_MOTION_DOT = .21977E-3
MEAN_MOTION_DDOT = 0

CCSDS_OMM_VERS = 2.0
CREATION_DATE  = 
ORIGINATOR     = 

OBJECT_NAME    = STARLINK-35537
OBJECT_ID      = 2025-245A
CENTER_NAME    = EARTH
REF_FRAME      = TEME
TIME_SYSTEM    = UTC
MEAN_ELEMENT_THEORY = SGP/SGP4

EPOCH          = 2025-11-26T10:00:01.998720
MEAN_MOTION    = 15.39611391
ECCENTRICITY   = .0001438
INCLINATION    = 53.1600
RA_OF_ASC_NODE = 46.6034
ARG_OF_PERICENTER = 112.0857
MEAN_ANOMALY   = 208.6751

EPHEMERIS_TYPE = 0
CLASSIFICATION_TYPE = U
NORAD_CAT_ID   = 66234
ELEMENT_SET_NO = 999
REV_AT_EPOCH   = 548
BSTAR          = .23376E-3
MEAN_MOTION_DOT = .8959E-4
MEAN_MOTION_DDOT = 0

CCSDS_OMM_VERS = 2.0
CREATION_DATE  = 
ORIGINATOR     = 

OBJECT_NAME    = STARLINK-35541
OBJECT_ID      = 2025-245B
CENTER_NAME    = EARTH
REF_FRAME      = TEME
TIME_SYSTEM    = UTC
MEAN_ELEMENT_THEORY = SGP/SGP4

EPOCH          = 2025-11-26T10:00:01.998720
MEAN_MOTION    = 15.39611544
ECCENTRICITY   = .0001361
INCLINATION    = 53.1600
RA_OF_ASC_NODE = 46.5990
ARG_OF_PERICENTER = 113.1967
MEAN_ANOMALY   = 209.3941

EPHEMERIS_TYPE = 0
CLASSIFICATION_TYPE = U
NORAD_CAT_ID   = 66235
ELEMENT_SET_NO = 999
REV_AT_EPOCH   = 542
BSTAR          = .24835E-3
MEAN_MOTION_DOT = .9544E-4
MEAN_MOTION_DDOT = 0

CCSDS_OMM_VERS = 2.0
CREATION_DATE  = 
ORIGINATOR     = 

OBJECT_NAME    = STARLINK-35454
OBJECT_ID      = 2025-245C
CENTER_NAME    = EARTH
REF_FRAME      = TEME
TIME_SYSTEM    = UTC
MEAN_ELEMENT_THEORY = SGP/SGP4

EPOCH          = 2025-11-26T10:00:01.998720
MEAN_MOTION    = 15.39609650
ECCENTRICITY   = .0001224
INCLINATION    = 53.1603
RA_OF_ASC_NODE = 46.5502
ARG_OF_PERICENTER = 79.5872
MEAN_ANOMALY   = 266.9234

EPHEMERIS_TYPE = 0
CLASSIFICATION_TYPE = U
NORAD_CAT_ID   = 66236
ELEMENT_SET_NO = 999
REV_AT_EPOCH   = 531
BSTAR          = .19561E-3
MEAN_MOTION_DOT = .743E-4
MEAN_MOTION_DDOT = 0

CCSDS_OMM_VERS = 2.0
CREATION_DATE  = 
ORIGINATOR     = 

OBJECT_NAME    = STARLINK-35557
OBJECT_ID      = 2025-245D
CENTER_NAME    = EARTH
REF_FRAME      = TEME
TIME_SYSTEM    = UTC
MEAN_ELEMENT_THEORY = SGP/SGP4

EPOCH          = 2025-11-26T10:00:01.998720
MEAN_MOTION    = 15.39559144
ECCENTRICITY   = .0002724
INCLINATION    = 53.1605
RA_OF_ASC_NODE = 46.5457
ARG_OF_PERICENTER = 23.2667
MEAN_ANOMALY   = 325.1692

EPHEMERIS_TYPE = 0
CLASSIFICATION_TYPE = U
NORAD_CAT_ID   = 66237
ELEMENT_SET_NO = 999
REV_AT_EPOCH   = 548
BSTAR          = .37003E-3
MEAN_MOTION_DOT = .144E-3
MEAN_MOTION_DDOT = 0

CCSDS_OMM_VERS = 2.0
CREATION_DATE  = 
ORIGINATOR     = 

OBJECT_NAME    = STARLINK-35556
OBJECT_ID      = 2025-245E
CENTER_NAME    = EARTH
REF_FRAME      = TEME
TIME_SYSTEM    = UTC
MEAN_ELEMENT_THEORY = SGP/SGP4

EPOCH          = 2025-11-26T10:00:01.998720
MEAN_MOTION    = 15.39599449
ECCENTRICITY   = .0001503
INCLINATION    = 53.1609
RA_OF_ASC_NODE = 46.4980
ARG_OF_PERICENTER = 86.5070
MEAN_ANOMALY   = 285.7773

EPHEMERIS_TYPE = 0
CLASSIFICATION_TYPE = U
NORAD_CAT_ID   = 66238
ELEMENT_SET_NO = 999
REV_AT_EPOCH   = 548
BSTAR          = .13517E-3
MEAN_MOTION_DOT = .5007E-4
MEAN_MOTION_DDOT = 0

CCSDS_OMM_VERS = 2.0
CREATION_DATE  = 
ORIGINATOR     = 

OBJECT_NAME    = STARLINK-35554
OBJECT_ID      = 2025-245F
CENTER_NAME    = EARTH
REF_FRAME      = TEME
TIME_SYSTEM    = UTC
MEAN_ELEMENT_THEORY = SGP/SGP4

EPOCH          = 2025-11-26T10:00:01.998720
MEAN_MOTION    = 15.39608222
ECCENTRICITY   = .0001572
INCLINATION    = 53.1609
RA_OF_ASC_NODE = 46.4945
ARG_OF_PERICENTER = 77.1622
MEAN_ANOMALY   = 296.9314

EPHEMERIS_TYPE = 0
CLASSIFICATION_TYPE = U
NORAD_CAT_ID   = 66239
ELEMENT_SET_NO = 999
REV_AT_EPOCH   = 531
BSTAR          = .21806E-3
MEAN_MOTION_DOT = .8329E-4
MEAN_MOTION_DDOT = 0

CCSDS_OMM_VERS = 2.0
CREATION_DATE  = 
ORIGINATOR     = 

OBJECT_NAME    = STARLINK-35546
OBJECT_ID      = 2025-245G
CENTER_NAME    = EARTH
REF_FRAME      = TEME
TIME_SYSTEM    = UTC
MEAN_ELEMENT_THEORY = SGP/SGP4

EPOCH          = 2025-11-26T10:00:01.998720
MEAN_MOTION    = 15.39628797
ECCENTRICITY   = .0001762
INCLINATION    = 53.1610
RA_OF_ASC_NODE = 46.4472
ARG_OF_PERICENTER = 64.8094
MEAN_ANOMALY   = 333.1786

EPHEMERIS_TYPE = 0
CLASSIFICATION_TYPE = U
NORAD_CAT_ID   = 66240
ELEMENT_SET_NO = 999
REV_AT_EPOCH   = 548
BSTAR          = .4676E-4
MEAN_MOTION_DOT = .1472E-4
MEAN_MOTION_DDOT = 0

CCSDS_OMM_VERS = 2.0
CREATION_DATE  = 
ORIGINATOR     = 

OBJECT_NAME    = STARLINK-35497
OBJECT_ID      = 2025-245H
CENTER_NAME    = EARTH
REF_FRAME      = TEME
TIME_SYSTEM    = UTC
MEAN_ELEMENT_THEORY = SGP/SGP4

EPOCH          = 2025-11-26T10:00:01.998720
MEAN_MOTION    = 15.39622949
ECCENTRICITY   = .000162
INCLINATION    = 53.1610
RA_OF_ASC_NODE = 46.4435
ARG_OF_PERICENTER = 65.7297
MEAN_ANOMALY   = 334.1031

EPHEMERIS_TYPE = 0
CLASSIFICATION_TYPE = U
NORAD_CAT_ID   = 66241
ELEMENT_SET_NO = 999
REV_AT_EPOCH   = 542
BSTAR          = .78426E-4
MEAN_MOTION_DOT = .2739E-4
MEAN_MOTION_DDOT = 0

